[{"OBJECT_NAME":"TIANMU-1 07","OBJECT_ID":"2023-101A","EPOCH":"2026-03-06T13:47:20.454720","MEAN_MOTION":15.29118809,"ECCENTRICITY":0.00046097,"INCLINATION":97.2728,"RA_OF_ASC_NODE":118.5929,"ARG_OF_PERICENTER":142.4105,"MEAN_ANOMALY":217.7458,"EPHEMERIS_TYPE":0,"CLASSIFICATION_TYPE":"U","NORAD_CAT_ID":57399,"ELEMENT_SET_NO":999,"REV_AT_EPOCH":14596,"BSTAR":0.00029794732,"MEAN_MOTION_DOT":8.352e-5,"MEAN_MOTION_DDOT":0},{"OBJECT_NAME":"STARLINK-31182","OBJECT_ID":"2024-044H","EPOCH":"2026-03-09T10:53:33.640512","MEAN_MOTION":15.27593573,"ECCENTRICITY":3.887e-5,"INCLINATION":42.998,"RA_OF_ASC_NODE":108.0029,"ARG_OF_PERICENTER":227.2517,"MEAN_ANOMALY":132.8302,"EPHEMERIS_TYPE":0,"CLASSIFICATION_TYPE":"U","NORAD_CAT_ID":59159,"ELEMENT_SET_NO":999,"REV_AT_EPOCH":11356,"BSTAR":-0.00011253326,"MEAN_MOTION_DOT":-3.358e-5,"MEAN_MOTION_DDOT":0}]
